48062,ONEWEB-0159,2021,109.63,148.0,+,87.89,Active,1,LEO,Russia,UK,Commercial,Communications,Soyuz,1 48062U 21025W   24198.27963274 -.00000074  00000+0 -23800-3 0  9992,2 48062  87.8923  99.7200 0001796  83.6767 276.4566 13.13469611161599,13.13469611,0.0001796,LEO
48063,ONEWEB-0164,2021,109.63,148.0,+,87.89,Active,1,LEO,Russia,UK,Commercial,Communications,Soyuz,1 48063U 21025X   24198.26217100  .00000396  00000+0  10486-2 0  9992,2 48063  87.8923  99.7337 0001907  73.4777 286.6561 13.13472153161574,13.13472153,0.0001907,LEO
48064,ONEWEB-0167,2021,109.63,148.0,+,87.89,Active,1,LEO,Russia,UK,Commercial,Communications,Soyuz,1 48064U 21025Y   24198.29153255 -.00000224  00000+0 -64908-3 0  9997,2 48064  87.8924  99.7400 0001741  80.9289 279.2037 13.13469926161563,13.13469926,0.0001741,LEO
48065,ONEWEB-0166,2021,109.63,148.0,+,87.89,Active,1,LEO,Russia,UK,Commercial,Communications,Soyuz,1 48065U 21025Z   24198.23678310  .00000073  00000+0  16604-3 0  9996,2 48065  87.8920  99.7331 0001933  83.5376 276.5973 13.13470430161631,13.1347043,0.0001933,LEO
48066,ONEWEB-0151,2021,109.63,148.0,+,87.89,Active,1,LEO,Russia,UK,Commercial,Communications,Soyuz,1 48066U 21025AA  24198.23836399 -.00000193  00000+0 -56257-3 0  9993,2 48066  87.8921  99.7469 0001886  73.1386 286.9949 13.13470962161579,13.13470962,0.0001886,LEO
48067,ONEWEB-0170,2021,109.63,148.0,+,87.89,Active,1,LEO,Russia,UK,Commercial,Communications,Soyuz,1 48067U 21025AB  24198.24631025  .00000325  00000+0  85415-3 0  9997,2 48067  87.8921  99.7478 0002156  61.0390 299.0955 13.13471789161538,13.13471789,0.0002156,LEO
48068,ONEWEB-0168,2021,109.63,148.0,+,87.89,Active,1,LEO,Russia,UK,Commercial,Communications,Soyuz,1 48068U 21025AC  24198.23202101 -.00000074  00000+0 -23687-3 0  9992,2 48068  87.8927  99.7212 0001844  78.7675 281.3661 13.13470371161540,13.13470371,0.0001844,LEO
48069,ONEWEB-0173,2021,109.63,148.0,+,87.89,Active,1,LEO,Russia,UK,Commercial,Communications,Soyuz,1 48069U 21025AD  24198.22408064 -.00000177  00000+0 -51908-3 0  9999,2 48069  87.8924  99.7328 0001435  73.4933 286.6354 13.13470930161785,13.1347093,0.0001435,LEO
